KUIPER-00008            
1 63724U 25088A   25222.60566098  .00005240  00000+0  45156-3 0  9992
2 63724  51.8916 329.2992 0011577 108.7892 251.4335 14.98745275 16390
KUIPER-00009            
1 63725U 25088B   25223.25002315 -.01312504  00000+0 -92251-1 0  9995
2 63725  51.8840 318.9624 0011964 129.9382 180.9413 15.07555479 16583
KUIPER-00010            
1 63726U 25088C   25222.51747156  .00017371  00000+0  49000-3 0  9990
2 63726  51.8655 318.5967 0009148 121.1334 239.0551 15.36456078 16155
KUIPER-00011            
1 63727U 25088D   25222.54919983  .00018397  00000+0  52653-3 0  9990
2 63727  51.8585 318.7346 0010487 130.9761 229.2134 15.35947798 16297
KUIPER-00012            
1 63728U 25088E   25222.48100289  .00019068  00000+0  54293-3 0  9993
2 63728  51.8569 319.0149 0010701 132.1062 228.0835 15.36081114 16233
KUIPER-00013            
1 63729U 25088F   25223.25002315  .00028447  00000+0  21421-2 0  9998
2 63729  51.8867 319.7285 0007256  82.1392 216.9507 15.02269081 16386
KUIPER-00014            
1 63730U 25088G   25223.25002315 -.01699395  00000+0 -13354+0 0  9992
2 63730  51.8859 320.7854 0009014 118.4044  87.9210 15.03787120 16189
KUIPER-00015            
1 63731U 25088H   25222.58345754  .00000492  00000+0  91539-4 0  9992
2 63731  51.9006 334.9224 0011457 102.4522 257.7723 14.81135691 16395
