<?xml version="1.0" encoding="UTF-8"?>
<ndm xmlns:xsi="http://www.w3.org/2001/XMLSchema-instance" xsi:noNamespaceSchemaLocation="https://sanaregistry.org/r/ndmxml_unqualified/ndmxml-2.0.0-master-2.0.xsd">
<omm id="CCSDS_OMM_VERS" version="2.0">
<header><CREATION_DATE/><ORIGINATOR/></header><body><segment><metadata><OBJECT_NAME>KUIPER-00008</OBJECT_NAME><OBJECT_ID>2025-088A</OBJECT_ID><CENTER_NAME>EARTH</CENTER_NAME><REF_FRAME>TEME</REF_FRAME><TIME_SYSTEM>UTC</TIME_SYSTEM><MEAN_ELEMENT_THEORY>SGP4</MEAN_ELEMENT_THEORY></metadata><data><meanElements><EPOCH>2025-08-10T14:32:09.108672</EPOCH><MEAN_MOTION>14.98745275</MEAN_MOTION><ECCENTRICITY>.0011577</ECCENTRICITY><INCLINATION>51.8916</INCLINATION><RA_OF_ASC_NODE>329.2992</RA_OF_ASC_NODE><ARG_OF_PERICENTER>108.7892</ARG_OF_PERICENTER><MEAN_ANOMALY>251.4335</MEAN_ANOMALY></meanElements><tleParameters><EPHEMERIS_TYPE>0</EPHEMERIS_TYPE><CLASSIFICATION_TYPE>U</CLASSIFICATION_TYPE><NORAD_CAT_ID>63724</NORAD_CAT_ID><ELEMENT_SET_NO>999</ELEMENT_SET_NO><REV_AT_EPOCH>1639</REV_AT_EPOCH><BSTAR>.45156E-3</BSTAR><MEAN_MOTION_DOT>.524E-4</MEAN_MOTION_DOT><MEAN_MOTION_DDOT>0</MEAN_MOTION_DDOT></tleParameters></data></segment></body></omm>
<omm id="CCSDS_OMM_VERS" version="2.0">
<header><CREATION_DATE/><ORIGINATOR/></header><body><segment><metadata><OBJECT_NAME>KUIPER-00009</OBJECT_NAME><OBJECT_ID>2025-088B</OBJECT_ID><CENTER_NAME>EARTH</CENTER_NAME><REF_FRAME>TEME</REF_FRAME><TIME_SYSTEM>UTC</TIME_SYSTEM><MEAN_ELEMENT_THEORY>SGP4</MEAN_ELEMENT_THEORY></metadata><data><meanElements><EPOCH>2025-08-11T06:00:02.000160</EPOCH><MEAN_MOTION>15.07555479</MEAN_MOTION><ECCENTRICITY>.0011964</ECCENTRICITY><INCLINATION>51.8840</INCLINATION><RA_OF_ASC_NODE>318.9624</RA_OF_ASC_NODE><ARG_OF_PERICENTER>129.9382</ARG_OF_PERICENTER><MEAN_ANOMALY>180.9413</MEAN_ANOMALY></meanElements><tleParameters><EPHEMERIS_TYPE>0</EPHEMERIS_TYPE><CLASSIFICATION_TYPE>U</CLASSIFICATION_TYPE><NORAD_CAT_ID>63725</NORAD_CAT_ID><ELEMENT_SET_NO>999</ELEMENT_SET_NO><REV_AT_EPOCH>1658</REV_AT_EPOCH><BSTAR>-.92251E-1</BSTAR><MEAN_MOTION_DOT>-.1312504E-1</MEAN_MOTION_DOT><MEAN_MOTION_DDOT>0</MEAN_MOTION_DDOT></tleParameters></data></segment></body></omm>
<omm id="CCSDS_OMM_VERS" version="2.0">
<header><CREATION_DATE/><ORIGINATOR/></header><body><segment><metadata><OBJECT_NAME>KUIPER-00010</OBJECT_NAME><OBJECT_ID>2025-088C</OBJECT_ID><CENTER_NAME>EARTH</CENTER_NAME><REF_FRAME>TEME</REF_FRAME><TIME_SYSTEM>UTC</TIME_SYSTEM><MEAN_ELEMENT_THEORY>SGP4</MEAN_ELEMENT_THEORY></metadata><data><meanElements><EPOCH>2025-08-10T12:25:09.542784</EPOCH><MEAN_MOTION>15.36456078</MEAN_MOTION><ECCENTRICITY>.0009148</ECCENTRICITY><INCLINATION>51.8655</INCLINATION><RA_OF_ASC_NODE>318.5967</RA_OF_ASC_NODE><ARG_OF_PERICENTER>121.1334</ARG_OF_PERICENTER><MEAN_ANOMALY>239.0551</MEAN_ANOMALY></meanElements><tleParameters><EPHEMERIS_TYPE>0</EPHEMERIS_TYPE><CLASSIFICATION_TYPE>U</CLASSIFICATION_TYPE><NORAD_CAT_ID>63726</NORAD_CAT_ID><ELEMENT_SET_NO>999</ELEMENT_SET_NO><REV_AT_EPOCH>1615</REV_AT_EPOCH><BSTAR>.49E-3</BSTAR><MEAN_MOTION_DOT>.17371E-3</MEAN_MOTION_DOT><MEAN_MOTION_DDOT>0</MEAN_MOTION_DDOT></tleParameters></data></segment></body></omm>
<omm id="CCSDS_OMM_VERS" version="2.0">
<header><CREATION_DATE/><ORIGINATOR/></header><body><segment><metadata><OBJECT_NAME>KUIPER-00011</OBJECT_NAME><OBJECT_ID>2025-088D</OBJECT_ID><CENTER_NAME>EARTH</CENTER_NAME><REF_FRAME>TEME</REF_FRAME><TIME_SYSTEM>UTC</TIME_SYSTEM><MEAN_ELEMENT_THEORY>SGP4</MEAN_ELEMENT_THEORY></metadata><data><meanElements><EPOCH>2025-08-10T13:10:50.865312</EPOCH><MEAN_MOTION>15.35947798</MEAN_MOTION><ECCENTRICITY>.0010487</ECCENTRICITY><INCLINATION>51.8585</INCLINATION><RA_OF_ASC_NODE>318.7346</RA_OF_ASC_NODE><ARG_OF_PERICENTER>130.9761</ARG_OF_PERICENTER><MEAN_ANOMALY>229.2134</MEAN_ANOMALY></meanElements><tleParameters><EPHEMERIS_TYPE>0</EPHEMERIS_TYPE><CLASSIFICATION_TYPE>U</CLASSIFICATION_TYPE><NORAD_CAT_ID>63727</NORAD_CAT_ID><ELEMENT_SET_NO>999</ELEMENT_SET_NO><REV_AT_EPOCH>1629</REV_AT_EPOCH><BSTAR>.52653E-3</BSTAR><MEAN_MOTION_DOT>.18397E-3</MEAN_MOTION_DOT><MEAN_MOTION_DDOT>0</MEAN_MOTION_DDOT></tleParameters></data></segment></body></omm>
<omm id="CCSDS_OMM_VERS" version="2.0">
<header><CREATION_DATE/><ORIGINATOR/></header><body><segment><metadata><OBJECT_NAME>KUIPER-00012</OBJECT_NAME><OBJECT_ID>2025-088E</OBJECT_ID><CENTER_NAME>EARTH</CENTER_NAME><REF_FRAME>TEME</REF_FRAME><TIME_SYSTEM>UTC</TIME_SYSTEM><MEAN_ELEMENT_THEORY>SGP4</MEAN_ELEMENT_THEORY></metadata><data><meanElements><EPOCH>2025-08-10T11:32:38.649696</EPOCH><MEAN_MOTION>15.36081114</MEAN_MOTION><ECCENTRICITY>.0010701</ECCENTRICITY><INCLINATION>51.8569</INCLINATION><RA_OF_ASC_NODE>319.0149</RA_OF_ASC_NODE><ARG_OF_PERICENTER>132.1062</ARG_OF_PERICENTER><MEAN_ANOMALY>228.0835</MEAN_ANOMALY></meanElements><tleParameters><EPHEMERIS_TYPE>0</EPHEMERIS_TYPE><CLASSIFICATION_TYPE>U</CLASSIFICATION_TYPE><NORAD_CAT_ID>63728</NORAD_CAT_ID><ELEMENT_SET_NO>999</ELEMENT_SET_NO><REV_AT_EPOCH>1623</REV_AT_EPOCH><BSTAR>.54293E-3</BSTAR><MEAN_MOTION_DOT>.19068E-3</MEAN_MOTION_DOT><MEAN_MOTION_DDOT>0</MEAN_MOTION_DDOT></tleParameters></data></segment></body></omm>
<omm id="CCSDS_OMM_VERS" version="2.0">
<header><CREATION_DATE/><ORIGINATOR/></header><body><segment><metadata><OBJECT_NAME>KUIPER-00013</OBJECT_NAME><OBJECT_ID>2025-088F</OBJECT_ID><CENTER_NAME>EARTH</CENTER_NAME><REF_FRAME>TEME</REF_FRAME><TIME_SYSTEM>UTC</TIME_SYSTEM><MEAN_ELEMENT_THEORY>SGP4</MEAN_ELEMENT_THEORY></metadata><data><meanElements><EPOCH>2025-08-11T06:00:02.000160</EPOCH><MEAN_MOTION>15.02269081</MEAN_MOTION><ECCENTRICITY>.0007256</ECCENTRICITY><INCLINATION>51.8867</INCLINATION><RA_OF_ASC_NODE>319.7285</RA_OF_ASC_NODE><ARG_OF_PERICENTER>82.1392</ARG_OF_PERICENTER><MEAN_ANOMALY>216.9507</MEAN_ANOMALY></meanElements><tleParameters><EPHEMERIS_TYPE>0</EPHEMERIS_TYPE><CLASSIFICATION_TYPE>U</CLASSIFICATION_TYPE><NORAD_CAT_ID>63729</NORAD_CAT_ID><ELEMENT_SET_NO>999</ELEMENT_SET_NO><REV_AT_EPOCH>1638</REV_AT_EPOCH><BSTAR>.21421E-2</BSTAR><MEAN_MOTION_DOT>.28447E-3</MEAN_MOTION_DOT><MEAN_MOTION_DDOT>0</MEAN_MOTION_DDOT></tleParameters></data></segment></body></omm>
<omm id="CCSDS_OMM_VERS" version="2.0">
<header><CREATION_DATE/><ORIGINATOR/></header><body><segment><metadata><OBJECT_NAME>KUIPER-00014</OBJECT_NAME><OBJECT_ID>2025-088G</OBJECT_ID><CENTER_NAME>EARTH</CENTER_NAME><REF_FRAME>TEME</REF_FRAME><TIME_SYSTEM>UTC</TIME_SYSTEM><MEAN_ELEMENT_THEORY>SGP4</MEAN_ELEMENT_THEORY></metadata><data><meanElements><EPOCH>2025-08-11T06:00:02.000160</EPOCH><MEAN_MOTION>15.03787120</MEAN_MOTION><ECCENTRICITY>.0009014</ECCENTRICITY><INCLINATION>51.8859</INCLINATION><RA_OF_ASC_NODE>320.7854</RA_OF_ASC_NODE><ARG_OF_PERICENTER>118.4044</ARG_OF_PERICENTER><MEAN_ANOMALY>87.9210</MEAN_ANOMALY></meanElements><tleParameters><EPHEMERIS_TYPE>0</EPHEMERIS_TYPE><CLASSIFICATION_TYPE>U</CLASSIFICATION_TYPE><NORAD_CAT_ID>63730</NORAD_CAT_ID><ELEMENT_SET_NO>999</ELEMENT_SET_NO><REV_AT_EPOCH>1618</REV_AT_EPOCH><BSTAR>-.13354E+0</BSTAR><MEAN_MOTION_DOT>-.1699395E-1</MEAN_MOTION_DOT><MEAN_MOTION_DDOT>0</MEAN_MOTION_DDOT></tleParameters></data></segment></body></omm>
<omm id="CCSDS_OMM_VERS" version="2.0">
<header><CREATION_DATE/><ORIGINATOR/></header><body><segment><metadata><OBJECT_NAME>KUIPER-00015</OBJECT_NAME><OBJECT_ID>2025-088H</OBJECT_ID><CENTER_NAME>EARTH</CENTER_NAME><REF_FRAME>TEME</REF_FRAME><TIME_SYSTEM>UTC</TIME_SYSTEM><MEAN_ELEMENT_THEORY>SGP4</MEAN_ELEMENT_THEORY></metadata><data><meanElements><EPOCH>2025-08-10T14:00:10.731456</EPOCH><MEAN_MOTION>14.81135691</MEAN_MOTION><ECCENTRICITY>.0011457</ECCENTRICITY><INCLINATION>51.9006</INCLINATION><RA_OF_ASC_NODE>334.9224</RA_OF_ASC_NODE><ARG_OF_PERICENTER>102.4522</ARG_OF_PERICENTER><MEAN_ANOMALY>257.7723</MEAN_ANOMALY></meanElements><tleParameters><EPHEMERIS_TYPE>0</EPHEMERIS_TYPE><CLASSIFICATION_TYPE>U</CLASSIFICATION_TYPE><NORAD_CAT_ID>63731</NORAD_CAT_ID><ELEMENT_SET_NO>999</ELEMENT_SET_NO><REV_AT_EPOCH>1639</REV_AT_EPOCH><BSTAR>.91539E-4</BSTAR><MEAN_MOTION_DOT>.492E-5</MEAN_MOTION_DOT><MEAN_MOTION_DDOT>0</MEAN_MOTION_DDOT></tleParameters></data></segment></body></omm>

</ndm>
